{
  "type": "FeatureCollection",
  "features": [
    {
      "type": "Feature",
      "properties": {
        "norad_id": 38208,
        "name": "COSMOS 2251 DEB",
        "group": "cosmos-2251-debris",
        "lat": 26.032081609717093,
        "lon": 70.08799124449462,
        "alt_km": 615.4346434291301,
        "timestamp": "2025-12-21T05:44:51.985437+00:00",
        "meta_object_name": "COSMOS 2251 DEB",
        "meta_object_id": "1993-036BSY",
        "meta_epoch": "2025-12-16T00:13:39.722592",
        "meta_mean_motion": 14.84023361,
        "meta_eccentricity": 0.00017369,
        "meta_inclination": 74.0064,
        "meta_ra_of_asc_node": 72.4172,
        "meta_arg_of_pericenter": 150.2716,
        "meta_mean_anomaly": 26.1687,
        "meta_ephemeris_type": 0,
        "meta_classification_type": "U",
        "meta_norad_cat_id": 38208,
        "meta_element_set_no": 999,
        "meta_rev_at_epoch": 71207,
        "meta_bstar": 0.0016436813,
        "meta_mean_motion_dot": 0.00013687,
        "meta_mean_motion_ddot": 0,
        "tle_line1": "1 38208U 93036BSY 25350.00948753  .00013687  00000+0  16437-2 0  9990",
        "tle_line2": "2 38208  74.0064  72.4172 0001736 150.2716  26.1687 14.84023361712075"
      },
      "geometry": {
        "type": "Point",
        "coordinates": [
          70.08799124449462,
          26.032081609717093
        ]
      }
    },
    {
      "type": "Feature",
      "properties": {
        "norad_id": 38212,
        "name": "COSMOS 2251 DEB",
        "group": "cosmos-2251-debris",
        "lat": 33.98563425648348,
        "lon": -131.1805655766594,
        "alt_km": 573.1893075432017,
        "timestamp": "2025-12-21T05:44:51.985447+00:00",
        "meta_object_name": "COSMOS 2251 DEB",
        "meta_object_id": "1993-036BTC",
        "meta_epoch": "2025-12-19T04:21:29.490912",
        "meta_mean_motion": 14.77722254,
        "meta_eccentricity": 0.0092064,
        "meta_inclination": 74.0528,
        "meta_ra_of_asc_node": 63.9673,
        "meta_arg_of_pericenter": 129.0689,
        "meta_mean_anomaly": 231.8724,
        "meta_ephemeris_type": 0,
        "meta_classification_type": "U",
        "meta_norad_cat_id": 38212,
        "meta_element_set_no": 999,
        "meta_rev_at_epoch": 81405,
        "meta_bstar": 0.00027193732,
        "meta_mean_motion_dot": 2.056e-05,
        "meta_mean_motion_ddot": 0,
        "tle_line1": "1 38212U 93036BTC 25353.18159133  .00002056  00000+0  27194-3 0  9994",
        "tle_line2": "2 38212  74.0528  63.9673 0092064 129.0689 231.8724 14.77722254814050"
      },
      "geometry": {
        "type": "Point",
        "coordinates": [
          -131.1805655766594,
          33.98563425648348
        ]
      }
    },
    {
      "type": "Feature",
      "properties": {
        "norad_id": 38220,
        "name": "COSMOS 2251 DEB",
        "group": "cosmos-2251-debris",
        "lat": 43.2699875922068,
        "lon": 66.83618039145374,
        "alt_km": 580.0612290617864,
        "timestamp": "2025-12-21T05:44:51.985457+00:00",
        "meta_object_name": "COSMOS 2251 DEB",
        "meta_object_id": "1993-036BTL",
        "meta_epoch": "2025-12-20T21:30:21.733632",
        "meta_mean_motion": 14.93346888,
        "meta_eccentricity": 0.00054923,
        "meta_inclination": 74.0142,
        "meta_ra_of_asc_node": 51.8714,
        "meta_arg_of_pericenter": 21.6922,
        "meta_mean_anomaly": 338.4493,
        "meta_ephemeris_type": 0,
        "meta_classification_type": "U",
        "meta_norad_cat_id": 38220,
        "meta_element_set_no": 999,
        "meta_rev_at_epoch": 71492,
        "meta_bstar": 0.0017295992,
        "meta_mean_motion_dot": 0.00018156,
        "meta_mean_motion_ddot": 0,
        "tle_line1": "1 38220U 93036BTL 25354.89608488  .00018156  00000+0  17296-2 0  9993",
        "tle_line2": "2 38220  74.0142  51.8714 0005492  21.6922 338.4493 14.93346888714924"
      },
      "geometry": {
        "type": "Point",
        "coordinates": [
          66.83618039145374,
          43.2699875922068
        ]
      }
    },
    {
      "type": "Feature",
      "properties": {
        "norad_id": 38479,
        "name": "COSMOS 2251 DEB",
        "group": "cosmos-2251-debris",
        "lat": -57.335863249370114,
        "lon": 142.01275285909892,
        "alt_km": 715.2056019924303,
        "timestamp": "2025-12-21T05:44:51.985467+00:00",
        "meta_object_name": "COSMOS 2251 DEB",
        "meta_object_id": "1993-036BTP",
        "meta_epoch": "2025-12-20T18:25:43.398624",
        "meta_mean_motion": 14.38374668,
        "meta_eccentricity": 0.00841363,
        "meta_inclination": 74.006,
        "meta_ra_of_asc_node": 169.459,
        "meta_arg_of_pericenter": 276.881,
        "meta_mean_anomaly": 100.4899,
        "meta_ephemeris_type": 0,
        "meta_classification_type": "U",
        "meta_norad_cat_id": 38479,
        "meta_element_set_no": 999,
        "meta_rev_at_epoch": 64803,
        "meta_bstar": 0.0011122606,
        "meta_mean_motion_dot": 3.506e-05,
        "meta_mean_motion_ddot": 0,
        "tle_line1": "1 38479U 93036BTP 25354.76786341  .00003506  00000+0  11123-2 0  9996",
        "tle_line2": "2 38479  74.0060 169.4590 0084136 276.8810 100.4899 14.38374668648030"
      },
      "geometry": {
        "type": "Point",
        "coordinates": [
          142.01275285909892,
          -57.335863249370114
        ]
      }
    },
    {
      "type": "Feature",
      "properties": {
        "norad_id": 38481,
        "name": "COSMOS 2251 DEB",
        "group": "cosmos-2251-debris",
        "lat": -43.81238235486534,
        "lon": -23.18282221652025,
        "alt_km": 759.1728768334569,
        "timestamp": "2025-12-21T05:44:51.985477+00:00",
        "meta_object_name": "COSMOS 2251 DEB",
        "meta_object_id": "1993-036BTR",
        "meta_epoch": "2025-12-17T17:37:11.726400",
        "meta_mean_motion": 13.94852214,
        "meta_eccentricity": 0.02348213,
        "meta_inclination": 73.9324,
        "meta_ra_of_asc_node": 358.9239,
        "meta_arg_of_pericenter": 298.2644,
        "meta_mean_anomaly": 59.4964,
        "meta_ephemeris_type": 0,
        "meta_classification_type": "U",
        "meta_norad_cat_id": 38481,
        "meta_element_set_no": 999,
        "meta_rev_at_epoch": 59130,
        "meta_bstar": 0.0012605173,
        "meta_mean_motion_dot": 2.103e-05,
        "meta_mean_motion_ddot": 0,
        "tle_line1": "1 38481U 93036BTR 25351.73416350  .00002103  00000+0  12605-2 0  9991",
        "tle_line2": "2 38481  73.9324 358.9239 0234821 298.2644  59.4964 13.94852214591302"
      },
      "geometry": {
        "type": "Point",
        "coordinates": [
          -23.18282221652025,
          -43.81238235486534
        ]
      }
    },
    {
      "type": "Feature",
      "properties": {
        "norad_id": 38483,
        "name": "COSMOS 2251 DEB",
        "group": "cosmos-2251-debris",
        "lat": 11.796155493992796,
        "lon": -0.08504063614071017,
        "alt_km": 791.6001898103659,
        "timestamp": "2025-12-21T05:44:51.985487+00:00",
        "meta_object_name": "COSMOS 2251 DEB",
        "meta_object_id": "1993-036BTT",
        "meta_epoch": "2025-12-12T08:16:48.530496",
        "meta_mean_motion": 14.28787654,
        "meta_eccentricity": 0.01107994,
        "meta_inclination": 74.262,
        "meta_ra_of_asc_node": 12.4521,
        "meta_arg_of_pericenter": 118.0167,
        "meta_mean_anomaly": 243.2246,
        "meta_ephemeris_type": 0,
        "meta_classification_type": "U",
        "meta_norad_cat_id": 38483,
        "meta_element_set_no": 999,
        "meta_rev_at_epoch": 63472,
        "meta_bstar": 0.0012977102,
        "meta_mean_motion_dot": 3.471e-05,
        "meta_mean_motion_ddot": 0,
        "tle_line1": "1 38483U 93036BTT 25346.34500614  .00003471  00000+0  12977-2 0  9992",
        "tle_line2": "2 38483  74.2620  12.4521 0110799 118.0167 243.2246 14.28787654634722"
      },
      "geometry": {
        "type": "Point",
        "coordinates": [
          -0.08504063614071017,
          11.796155493992796
        ]
      }
    },
    {
      "type": "Feature",
      "properties": {
        "norad_id": 38486,
        "name": "COSMOS 2251 DEB",
        "group": "cosmos-2251-debris",
        "lat": -72.72528007106237,
        "lon": 120.32830503218366,
        "alt_km": 644.6296490132399,
        "timestamp": "2025-12-21T05:44:51.985496+00:00",
        "meta_object_name": "COSMOS 2251 DEB",
        "meta_object_id": "1993-036BTW",
        "meta_epoch": "2025-12-19T21:49:44.280192",
        "meta_mean_motion": 14.73429029,
        "meta_eccentricity": 0.0030516,
        "meta_inclination": 73.9403,
        "meta_ra_of_asc_node": 190.8021,
        "meta_arg_of_pericenter": 334.2314,
        "meta_mean_anomaly": 90.8371,
        "meta_ephemeris_type": 0,
        "meta_classification_type": "U",
        "meta_norad_cat_id": 38486,
        "meta_element_set_no": 999,
        "meta_rev_at_epoch": 75540,
        "meta_bstar": 0.0013432,
        "meta_mean_motion_dot": 8.756e-05,
        "meta_mean_motion_ddot": 0,
        "tle_line1": "1 38486U 93036BTW 25353.90954028  .00008756  00000+0  13432-2 0  9995",
        "tle_line2": "2 38486  73.9403 190.8021 0030516 334.2314  90.8371 14.73429029755403"
      },
      "geometry": {
        "type": "Point",
        "coordinates": [
          120.32830503218366,
          -72.72528007106237
        ]
      }
    }
  ]
}